ONEWEB-0349             
1 49281U 21090C   25165.50430367  .00000010  00000+0 -62714-5 0  9999
2 49281  87.9262 347.6798 0001953  92.1935 267.9422 13.20772050181291
ONEWEB-0353             
1 49282U 21090D   25165.56179362 -.00000094  00000+0 -28713-3 0  9993
2 49282  87.9037   2.8462 0001760  96.6598 263.4732 13.14501358179285
ONEWEB-0356             
1 49283U 21090E   25165.50271946  .00000029  00000+0  39189-4 0  9995
2 49283  87.9261 347.6712 0001051  72.1867 287.9381 13.20773017181299
ONEWEB-0358             
1 49284U 21090F   25165.53270897  .00000039  00000+0  65050-4 0  9990
2 49284  87.9258 347.6550 0001813  85.8287 274.3054 13.20771626182022
ONEWEB-0359             
1 49285U 21090G   25165.52954474  .00000003  00000+0 -24161-4 0  9990
2 49285  87.9260 347.6678 0002016  80.1452 279.9909 13.20769846182004
ONEWEB-0360             
1 49286U 21090H   25165.52008405  .00000069  00000+0  13865-3 0  9994
2 49286  87.9261 347.6760 0001910  86.4363 273.6988 13.20772160181314
ONEWEB-0361             
1 49287U 21090J   25165.50114508  .00000055  00000+0  10444-3 0  9990
2 49287  87.9257 347.6750 0001702  88.4186 271.7142 13.20771665181762
ONEWEB-0362             
1 49288U 21090K   25165.54159582  .00000000  00000+0 -31576-4 0  9997
2 49288  87.9217  18.0768 0002038  87.7757 272.3609 13.19724222178425
